[Satellite]
VERSION=1.1
NAME=METOP-B
NICKNAME=METOP-B
TLE1=1 38771U 12049A   18020.97016014  .00000003  00000-0  21283-4 0  9994
TLE2=2 38771  98.6943  82.8094 0001239  40.7119  14.8928 14.21493256277224
